[{"OBJECT_NAME":"HULIANWANG DIGUI-143","OBJECT_ID":"2026-007G","EPOCH":"2026-03-09T14:39:38.201184","MEAN_MOTION":13.36985294,"ECCENTRICITY":0.00010614,"INCLINATION":50.0096,"RA_OF_ASC_NODE":82.8966,"ARG_OF_PERICENTER":291.1162,"MEAN_ANOMALY":68.96,"EPHEMERIS_TYPE":0,"CLASSIFICATION_TYPE":"U","NORAD_CAT_ID":67441,"ELEMENT_SET_NO":999,"REV_AT_EPOCH":754,"BSTAR":0.00012596913,"MEAN_MOTION_DOT":-6.1e-7,"MEAN_MOTION_DDOT":0},{"OBJECT_NAME":"COSMOS 1275 DEB","OBJECT_ID":"1981-053SW","EPOCH":"2026-03-07T16:43:23.902752","MEAN_MOTION":13.629739,"ECCENTRICITY":0.01272073,"INCLINATION":82.9545,"RA_OF_ASC_NODE":31.4596,"ARG_OF_PERICENTER":160.2287,"MEAN_ANOMALY":17.5225,"EPHEMERIS_TYPE":0,"CLASSIFICATION_TYPE":"U","NORAD_CAT_ID":42182,"ELEMENT_SET_NO":999,"REV_AT_EPOCH":59741,"BSTAR":0.0010205504,"MEAN_MOTION_DOT":8.58e-6,"MEAN_MOTION_DDOT":0}]
